ONEWEB-0311             
1 49097U 21075Y   26100.51257796 -.00000026  00000+0 -10010-3 0  9999
2 49097  87.9193  19.3007 0001470  86.2015 273.9285 13.17649707224719
ONEWEB-0312             
1 49098U 21075Z   26100.52777661  .00000021  00000+0  20326-4 0  9994
2 49098  87.9182  19.3130 0001532  71.1205 289.0092 13.17651163224698
ONEWEB-0313             
1 49099U 21075AA  26100.53269683  .00000069  00000+0  14418-3 0  9992
2 49099  87.9188  19.3187 0001690  79.0937 281.0385 13.17651575224684
ONEWEB-0314             
1 49100U 21075AB  26100.49907742  .00000041  00000+0  71995-4 0  9999
2 49100  87.9193  19.2904 0001487  70.9026 289.2266 13.17651329224654
ONEWEB-0315             
1 49101U 21075AC  26100.43365843 -.00000100  00000+0 -31374-3 0  9998
2 49101  87.9013   4.1004 0001498  88.2208 271.9092 13.12440416226280
ONEWEB-0316             
1 49102U 21075AD  26100.40114753 -.00000261  00000+0 -69415-3 0  9993
2 49102  87.9224 348.9376 0001679  82.1707 277.9616 13.18685666228277
ONEWEB-0317             
1 49103U 21075AE  26100.43704351 -.00000107  00000+0 -33411-3 0  9992
2 49103  87.9014   4.1225 0002378  66.4721 293.6657 13.12440068226308
ONEWEB-0318             
1 49104U 21075AF  26100.17021731 -.00000267  00000+0 -71019-3 0  9991
2 49104  87.9228 348.9786 0001503  86.1136 274.0168 13.18685947228209
ONEWEB-0319             
1 49105U 21075AG  26100.21051737 -.00000242  00000+0 -65668-3 0  9992
2 49105  87.9180  19.3700 0001436  94.7747 265.3548 13.17648778224650
ONEWEB-0323             
1 49106U 21075AH  26100.18971128  .00000363  00000+0  97254-3 0  9992
2 49106  87.9014   4.1531 0001245  90.2990 269.8282 13.12441754225633
ONEWEB-0329             
1 49107U 21075AJ  26100.21896935  .00000113  00000+0  25668-3 0  9992
2 49107  87.9183  19.3688 0001643  76.1794 283.9520 13.17650854224638
ONEWEB-0330             
1 49108U 21075AK  26100.16680393  .00000018  00000+0  13863-4 0  9995
2 49108  87.9188  19.3980 0001728  71.0449 289.0870 13.17648931224665
ONEWEB-0292             
1 49186U 21083A   26100.36749436 -.00000276  00000+0 -79208-3 0  9998
2 49186  87.8982 333.7516 0001613  87.0727 273.0586 13.13469095222022
ONEWEB-0303             
1 49187U 21083B   26100.39454882 -.00000237  00000+0 -63382-3 0  9993
2 49187  87.9227 348.9366 0001616  83.3415 276.7900 13.18685823221048
ONEWEB-0306             
1 49188U 21083C   26100.38467051  .00000009  00000+0 -10345-4 0  9993
2 49188  87.9232 348.9227 0001918  75.9728 284.1618 13.18685580221083
ONEWEB-0307             
1 49189U 21083D   26100.36155429 -.00000087  00000+0 -27318-3 0  9999
2 49189  87.8992 333.7422 0001556  82.8836 277.2470 13.13469393222021
