[{"OBJECT_NAME":"ONEWEB-0311","OBJECT_ID":"2021-075Y","EPOCH":"2026-04-10T12:18:06.735744","MEAN_MOTION":13.17649707,"ECCENTRICITY":0.000147,"INCLINATION":87.9193,"RA_OF_ASC_NODE":19.3007,"ARG_OF_PERICENTER":86.2015,"MEAN_ANOMALY":273.9285,"EPHEMERIS_TYPE":0,"CLASSIFICATION_TYPE":"U","NORAD_CAT_ID":49097,"ELEMENT_SET_NO":999,"REV_AT_EPOCH":22471,"BSTAR":-0.0001001,"MEAN_MOTION_DOT":-2.6e-07,"MEAN_MOTION_DDOT":0.0},{"OBJECT_NAME":"ONEWEB-0312","OBJECT_ID":"2021-075Z","EPOCH":"2026-04-10T12:39:59.899104","MEAN_MOTION":13.17651163,"ECCENTRICITY":0.0001532,"INCLINATION":87.9182,"RA_OF_ASC_NODE":19.313,"ARG_OF_PERICENTER":71.1205,"MEAN_ANOMALY":289.0092,"EPHEMERIS_TYPE":0,"CLASSIFICATION_TYPE":"U","NORAD_CAT_ID":49098,"ELEMENT_SET_NO":999,"REV_AT_EPOCH":22469,"BSTAR":2.0326e-05,"MEAN_MOTION_DOT":2.1e-07,"MEAN_MOTION_DDOT":0.0},{"OBJECT_NAME":"ONEWEB-0313","OBJECT_ID":"2021-075AA","EPOCH":"2026-04-10T12:47:05.006112","MEAN_MOTION":13.17651575,"ECCENTRICITY":0.000169,"INCLINATION":87.9188,"RA_OF_ASC_NODE":19.3187,"ARG_OF_PERICENTER":79.0937,"MEAN_ANOMALY":281.0385,"EPHEMERIS_TYPE":0,"CLASSIFICATION_TYPE":"U","NORAD_CAT_ID":49099,"ELEMENT_SET_NO":999,"REV_AT_EPOCH":22468,"BSTAR":0.00014418000000000002,"MEAN_MOTION_DOT":6.9e-07,"MEAN_MOTION_DDOT":0.0},{"OBJECT_NAME":"ONEWEB-0314","OBJECT_ID":"2021-075AB","EPOCH":"2026-04-10T11:58:40.289088","MEAN_MOTION":13.17651329,"ECCENTRICITY":0.0001487,"INCLINATION":87.9193,"RA_OF_ASC_NODE":19.2904,"ARG_OF_PERICENTER":70.9026,"MEAN_ANOMALY":289.2266,"EPHEMERIS_TYPE":0,"CLASSIFICATION_TYPE":"U","NORAD_CAT_ID":49100,"ELEMENT_SET_NO":999,"REV_AT_EPOCH":22465,"BSTAR":7.1995e-05,"MEAN_MOTION_DOT":4.1e-07,"MEAN_MOTION_DDOT":0.0},{"OBJECT_NAME":"ONEWEB-0315","OBJECT_ID":"2021-075AC","EPOCH":"2026-04-10T10:24:28.088352","MEAN_MOTION":13.12440416,"ECCENTRICITY":0.0001498,"INCLINATION":87.9013,"RA_OF_ASC_NODE":4.1004,"ARG_OF_PERICENTER":88.2208,"MEAN_ANOMALY":271.9092,"EPHEMERIS_TYPE":0,"CLASSIFICATION_TYPE":"U","NORAD_CAT_ID":49101,"ELEMENT_SET_NO":999,"REV_AT_EPOCH":22628,"BSTAR":-0.00031374,"MEAN_MOTION_DOT":-1e-06,"MEAN_MOTION_DDOT":0.0},{"OBJECT_NAME":"ONEWEB-0316","OBJECT_ID":"2021-075AD","EPOCH":"2026-04-10T09:37:39.146592","MEAN_MOTION":13.18685666,"ECCENTRICITY":0.0001679,"INCLINATION":87.9224,"RA_OF_ASC_NODE":348.9376,"ARG_OF_PERICENTER":82.1707,"MEAN_ANOMALY":277.9616,"EPHEMERIS_TYPE":0,"CLASSIFICATION_TYPE":"U","NORAD_CAT_ID":49102,"ELEMENT_SET_NO":999,"REV_AT_EPOCH":22827,"BSTAR":-0.00069415,"MEAN_MOTION_DOT":-2.61e-06,"MEAN_MOTION_DDOT":0.0},{"OBJECT_NAME":"ONEWEB-0317","OBJECT_ID":"2021-075AE","EPOCH":"2026-04-10T10:29:20.559264","MEAN_MOTION":13.12440068,"ECCENTRICITY":0.0002378,"INCLINATION":87.9014,"RA_OF_ASC_NODE":4.1225,"ARG_OF_PERICENTER":66.4721,"MEAN_ANOMALY":293.6657,"EPHEMERIS_TYPE":0,"CLASSIFICATION_TYPE":"U","NORAD_CAT_ID":49103,"ELEMENT_SET_NO":999,"REV_AT_EPOCH":22630,"BSTAR":-0.00033411000000000004,"MEAN_MOTION_DOT":-1.07e-06,"MEAN_MOTION_DDOT":0.0},{"OBJECT_NAME":"ONEWEB-0318","OBJECT_ID":"2021-075AF","EPOCH":"2026-04-10T04:05:06.775584","MEAN_MOTION":13.18685947,"ECCENTRICITY":0.0001503,"INCLINATION":87.9228,"RA_OF_ASC_NODE":348.9786,"ARG_OF_PERICENTER":86.1136,"MEAN_ANOMALY":274.0168,"EPHEMERIS_TYPE":0,"CLASSIFICATION_TYPE":"U","NORAD_CAT_ID":49104,"ELEMENT_SET_NO":999,"REV_AT_EPOCH":22820,"BSTAR":-0.00071019,"MEAN_MOTION_DOT":-2.67e-06,"MEAN_MOTION_DDOT":0.0},{"OBJECT_NAME":"ONEWEB-0319","OBJECT_ID":"2021-075AG","EPOCH":"2026-04-10T05:03:08.700768","MEAN_MOTION":13.17648778,"ECCENTRICITY":0.0001436,"INCLINATION":87.918,"RA_OF_ASC_NODE":19.37,"ARG_OF_PERICENTER":94.7747,"MEAN_ANOMALY":265.3548,"EPHEMERIS_TYPE":0,"CLASSIFICATION_TYPE":"U","NORAD_CAT_ID":49105,"ELEMENT_SET_NO":999,"REV_AT_EPOCH":22465,"BSTAR":-0.0006566800000000001,"MEAN_MOTION_DOT":-2.42e-06,"MEAN_MOTION_DDOT":0.0},{"OBJECT_NAME":"ONEWEB-0323","OBJECT_ID":"2021-075AH","EPOCH":"2026-04-10T04:33:11.054592","MEAN_MOTION":13.12441754,"ECCENTRICITY":0.0001245,"INCLINATION":87.9014,"RA_OF_ASC_NODE":4.1531,"ARG_OF_PERICENTER":90.299,"MEAN_ANOMALY":269.8282,"EPHEMERIS_TYPE":0,"CLASSIFICATION_TYPE":"U","NORAD_CAT_ID":49106,"ELEMENT_SET_NO":999,"REV_AT_EPOCH":22563,"BSTAR":0.0009725399999999999,"MEAN_MOTION_DOT":3.63e-06,"MEAN_MOTION_DDOT":0.0},{"OBJECT_NAME":"ONEWEB-0329","OBJECT_ID":"2021-075AJ","EPOCH":"2026-04-10T05:15:18.951840","MEAN_MOTION":13.17650854,"ECCENTRICITY":0.0001643,"INCLINATION":87.9183,"RA_OF_ASC_NODE":19.3688,"ARG_OF_PERICENTER":76.1794,"MEAN_ANOMALY":283.952,"EPHEMERIS_TYPE":0,"CLASSIFICATION_TYPE":"U","NORAD_CAT_ID":49107,"ELEMENT_SET_NO":999,"REV_AT_EPOCH":22463,"BSTAR":0.00025668,"MEAN_MOTION_DOT":1.13e-06,"MEAN_MOTION_DDOT":0.0},{"OBJECT_NAME":"ONEWEB-0330","OBJECT_ID":"2021-075AK","EPOCH":"2026-04-10T04:00:11.859552","MEAN_MOTION":13.17648931,"ECCENTRICITY":0.0001728,"INCLINATION":87.9188,"RA_OF_ASC_NODE":19.398,"ARG_OF_PERICENTER":71.0449,"MEAN_ANOMALY":289.087,"EPHEMERIS_TYPE":0,"CLASSIFICATION_TYPE":"U","NORAD_CAT_ID":49108,"ELEMENT_SET_NO":999,"REV_AT_EPOCH":22466,"BSTAR":1.3863000000000001e-05,"MEAN_MOTION_DOT":1.8e-07,"MEAN_MOTION_DDOT":0.0},{"OBJECT_NAME":"ONEWEB-0292","OBJECT_ID":"2021-083A","EPOCH":"2026-04-10T08:49:11.512704","MEAN_MOTION":13.13469095,"ECCENTRICITY":0.0001613,"INCLINATION":87.8982,"RA_OF_ASC_NODE":333.7516,"ARG_OF_PERICENTER":87.0727,"MEAN_ANOMALY":273.0586,"EPHEMERIS_TYPE":0,"CLASSIFICATION_TYPE":"U","NORAD_CAT_ID":49186,"ELEMENT_SET_NO":999,"REV_AT_EPOCH":22202,"BSTAR":-0.00079208,"MEAN_MOTION_DOT":-2.76e-06,"MEAN_MOTION_DDOT":0.0},{"OBJECT_NAME":"ONEWEB-0303","OBJECT_ID":"2021-083B","EPOCH":"2026-04-10T09:28:09.018048","MEAN_MOTION":13.18685823,"ECCENTRICITY":0.0001616,"INCLINATION":87.9227,"RA_OF_ASC_NODE":348.9366,"ARG_OF_PERICENTER":83.3415,"MEAN_ANOMALY":276.79,"EPHEMERIS_TYPE":0,"CLASSIFICATION_TYPE":"U","NORAD_CAT_ID":49187,"ELEMENT_SET_NO":999,"REV_AT_EPOCH":22104,"BSTAR":-0.0006338200000000001,"MEAN_MOTION_DOT":-2.37e-06,"MEAN_MOTION_DDOT":0.0},{"OBJECT_NAME":"ONEWEB-0306","OBJECT_ID":"2021-083C","EPOCH":"2026-04-10T09:13:55.532064","MEAN_MOTION":13.1868558,"ECCENTRICITY":0.0001918,"INCLINATION":87.9232,"RA_OF_ASC_NODE":348.9227,"ARG_OF_PERICENTER":75.9728,"MEAN_ANOMALY":284.1618,"EPHEMERIS_TYPE":0,"CLASSIFICATION_TYPE":"U","NORAD_CAT_ID":49188,"ELEMENT_SET_NO":999,"REV_AT_EPOCH":22108,"BSTAR":-1.0345e-05,"MEAN_MOTION_DOT":9e-08,"MEAN_MOTION_DDOT":0.0},{"OBJECT_NAME":"ONEWEB-0307","OBJECT_ID":"2021-083D","EPOCH":"2026-04-10T08:40:38.290656","MEAN_MOTION":13.13469393,"ECCENTRICITY":0.0001556,"INCLINATION":87.8992,"RA_OF_ASC_NODE":333.7422,"ARG_OF_PERICENTER":82.8836,"MEAN_ANOMALY":277.247,"EPHEMERIS_TYPE":0,"CLASSIFICATION_TYPE":"U","NORAD_CAT_ID":49189,"ELEMENT_SET_NO":999,"REV_AT_EPOCH":22202,"BSTAR":-0.00027318,"MEAN_MOTION_DOT":-8.7e-07,"MEAN_MOTION_DDOT":0.0}]